[{"OBJECT_NAME":"HUNITY","OBJECT_ID":"2025-276E","EPOCH":"2026-03-09T18:00:58.161024","MEAN_MOTION":15.21896165,"ECCENTRICITY":0.0006587,"INCLINATION":97.4154,"RA_OF_ASC_NODE":144.0054,"ARG_OF_PERICENTER":10.2177,"MEAN_ANOMALY":349.9192,"EPHEMERIS_TYPE":0,"CLASSIFICATION_TYPE":"U","NORAD_CAT_ID":66670,"ELEMENT_SET_NO":999,"REV_AT_EPOCH":1533,"BSTAR":0.001210955,"MEAN_MOTION_DOT":0.0002759,"MEAN_MOTION_DDOT":0},{"OBJECT_NAME":"OBJECT J","OBJECT_ID":"2022-019J","EPOCH":"2026-03-09T22:43:41.570688","MEAN_MOTION":15.19970869,"ECCENTRICITY":0.00078987,"INCLINATION":97.3535,"RA_OF_ASC_NODE":134.3032,"ARG_OF_PERICENTER":206.0852,"MEAN_ANOMALY":153.9986,"EPHEMERIS_TYPE":0,"CLASSIFICATION_TYPE":"U","NORAD_CAT_ID":51832,"ELEMENT_SET_NO":999,"REV_AT_EPOCH":22272,"BSTAR":8.5341526e-5,"MEAN_MOTION_DOT":1.77e-5,"MEAN_MOTION_DDOT":0}]
